CCSDS_OMM_VERS = 2.0
CREATION_DATE  = 
ORIGINATOR     = 

OBJECT_NAME    = STARLINK-36730
OBJECT_ID      = 2026-034AA
CENTER_NAME    = EARTH
REF_FRAME      = TEME
TIME_SYSTEM    = UTC
MEAN_ELEMENT_THEORY = SGP/SGP4

EPOCH          = 2026-03-06T14:46:51.313152
MEAN_MOTION    = 15.80959028
ECCENTRICITY   = .00010655
INCLINATION    = 53.1599
RA_OF_ASC_NODE = 226.5480
ARG_OF_PERICENTER = 38.2588
MEAN_ANOMALY   = 321.8510

EPHEMERIS_TYPE = 0
CLASSIFICATION_TYPE = U
NORAD_CAT_ID   = 67874
ELEMENT_SET_NO = 999
REV_AT_EPOCH   = 345
BSTAR          = .10888521E-2
MEAN_MOTION_DOT = .220659E-2
MEAN_MOTION_DDOT = 0

CCSDS_OMM_VERS = 2.0
CREATION_DATE  = 
ORIGINATOR     = 

OBJECT_NAME    = STARLINK-36727
OBJECT_ID      = 2026-034AB
CENTER_NAME    = EARTH
REF_FRAME      = TEME
TIME_SYSTEM    = UTC
MEAN_ELEMENT_THEORY = SGP/SGP4

EPOCH          = 2026-03-06T14:45:46.558944
MEAN_MOTION    = 15.80936279
ECCENTRICITY   = .00011346
INCLINATION    = 53.1599
RA_OF_ASC_NODE = 226.5421
ARG_OF_PERICENTER = 43.3168
MEAN_ANOMALY   = 316.7944

EPHEMERIS_TYPE = 0
CLASSIFICATION_TYPE = U
NORAD_CAT_ID   = 67875
ELEMENT_SET_NO = 999
REV_AT_EPOCH   = 345
BSTAR          = .79748919E-3
MEAN_MOTION_DOT = .160117E-2
MEAN_MOTION_DDOT = 0

CCSDS_OMM_VERS = 2.0
CREATION_DATE  = 
ORIGINATOR     = 

OBJECT_NAME    = STARLINK-36743
OBJECT_ID      = 2026-034AC
CENTER_NAME    = EARTH
REF_FRAME      = TEME
TIME_SYSTEM    = UTC
MEAN_ELEMENT_THEORY = SGP/SGP4

EPOCH          = 2026-03-06T14:44:41.629344
MEAN_MOTION    = 15.80976647
ECCENTRICITY   = .00006881
INCLINATION    = 53.1604
RA_OF_ASC_NODE = 226.5366
ARG_OF_PERICENTER = 36.7156
MEAN_ANOMALY   = 323.3914

EPHEMERIS_TYPE = 0
CLASSIFICATION_TYPE = U
NORAD_CAT_ID   = 67876
ELEMENT_SET_NO = 999
REV_AT_EPOCH   = 345
BSTAR          = .1301867E-2
MEAN_MOTION_DOT = .265576E-2
MEAN_MOTION_DDOT = 0

CCSDS_OMM_VERS = 2.0
CREATION_DATE  = 
ORIGINATOR     = 

OBJECT_NAME    = STARLINK-36784
OBJECT_ID      = 2026-034AD
CENTER_NAME    = EARTH
REF_FRAME      = TEME
TIME_SYSTEM    = UTC
MEAN_ELEMENT_THEORY = SGP/SGP4

EPOCH          = 2026-03-06T14:43:36.972768
MEAN_MOTION    = 15.80963738
ECCENTRICITY   = .00007578
INCLINATION    = 53.1602
RA_OF_ASC_NODE = 226.5316
ARG_OF_PERICENTER = 42.8637
MEAN_ANOMALY   = 317.2445

EPHEMERIS_TYPE = 0
CLASSIFICATION_TYPE = U
NORAD_CAT_ID   = 67877
ELEMENT_SET_NO = 999
REV_AT_EPOCH   = 345
BSTAR          = .12054269E-2
MEAN_MOTION_DOT = .245114E-2
MEAN_MOTION_DDOT = 0

CCSDS_OMM_VERS = 2.0
CREATION_DATE  = 
ORIGINATOR     = 

OBJECT_NAME    = STARLINK-36689
OBJECT_ID      = 2026-034AE
CENTER_NAME    = EARTH
REF_FRAME      = TEME
TIME_SYSTEM    = UTC
MEAN_ELEMENT_THEORY = SGP/SGP4

EPOCH          = 2026-03-06T14:42:32.247936
MEAN_MOTION    = 15.80960307
ECCENTRICITY   = .00010427
INCLINATION    = 53.1601
RA_OF_ASC_NODE = 226.5273
ARG_OF_PERICENTER = 70.8977
MEAN_ANOMALY   = 289.2158

EPHEMERIS_TYPE = 0
CLASSIFICATION_TYPE = U
NORAD_CAT_ID   = 67878
ELEMENT_SET_NO = 999
REV_AT_EPOCH   = 345
BSTAR          = .11543933E-2
MEAN_MOTION_DOT = .234373E-2
MEAN_MOTION_DDOT = 0

CCSDS_OMM_VERS = 2.0
CREATION_DATE  = 
ORIGINATOR     = 

OBJECT_NAME    = STARLINK-36818
OBJECT_ID      = 2026-035A
CENTER_NAME    = EARTH
REF_FRAME      = TEME
TIME_SYSTEM    = UTC
MEAN_ELEMENT_THEORY = SGP/SGP4

EPOCH          = 2026-03-06T14:00:01.000224
MEAN_MOTION    = 15.94524516
ECCENTRICITY   = .0001142
INCLINATION    = 97.2757
RA_OF_ASC_NODE = 357.6832
ARG_OF_PERICENTER = 99.3072
MEAN_ANOMALY   = 302.8198

EPHEMERIS_TYPE = 0
CLASSIFICATION_TYPE = U
NORAD_CAT_ID   = 67879
ELEMENT_SET_NO = 999
REV_AT_EPOCH   = 325
BSTAR          = -.27227409E-2
MEAN_MOTION_DOT = -.1019395E-1
MEAN_MOTION_DDOT = .32009241E-3

CCSDS_OMM_VERS = 2.0
CREATION_DATE  = 
ORIGINATOR     = 

OBJECT_NAME    = STARLINK-36821
OBJECT_ID      = 2026-035B
CENTER_NAME    = EARTH
REF_FRAME      = TEME
TIME_SYSTEM    = UTC
MEAN_ELEMENT_THEORY = SGP/SGP4

EPOCH          = 2026-03-06T14:00:01.000224
MEAN_MOTION    = 15.94683377
ECCENTRICITY   = .00012007
INCLINATION    = 97.2751
RA_OF_ASC_NODE = 357.6864
ARG_OF_PERICENTER = 95.3540
MEAN_ANOMALY   = 314.2690

EPHEMERIS_TYPE = 0
CLASSIFICATION_TYPE = U
NORAD_CAT_ID   = 67880
ELEMENT_SET_NO = 999
REV_AT_EPOCH   = 325
BSTAR          = -.28660503E-2
MEAN_MOTION_DOT = -.1081616E-1
MEAN_MOTION_DDOT = .35786678E-3

CCSDS_OMM_VERS = 2.0
CREATION_DATE  = 
ORIGINATOR     = 

OBJECT_NAME    = STARLINK-36808
OBJECT_ID      = 2026-035C
CENTER_NAME    = EARTH
REF_FRAME      = TEME
TIME_SYSTEM    = UTC
MEAN_ELEMENT_THEORY = SGP/SGP4

EPOCH          = 2026-03-06T14:00:01.000224
MEAN_MOTION    = 15.94602457
ECCENTRICITY   = .00010919
INCLINATION    = 97.2752
RA_OF_ASC_NODE = 357.6845
ARG_OF_PERICENTER = 87.3800
MEAN_ANOMALY   = 317.6995

EPHEMERIS_TYPE = 0
CLASSIFICATION_TYPE = U
NORAD_CAT_ID   = 67881
ELEMENT_SET_NO = 999
REV_AT_EPOCH   = 325
BSTAR          = -.27491044E-2
MEAN_MOTION_DOT = -.1033406E-1
MEAN_MOTION_DDOT = .32857404E-3

CCSDS_OMM_VERS = 2.0
CREATION_DATE  = 
ORIGINATOR     = 

OBJECT_NAME    = STARLINK-36817
OBJECT_ID      = 2026-035D
CENTER_NAME    = EARTH
REF_FRAME      = TEME
TIME_SYSTEM    = UTC
MEAN_ELEMENT_THEORY = SGP/SGP4

EPOCH          = 2026-03-06T14:00:01.000224
MEAN_MOTION    = 15.94814216
ECCENTRICITY   = .00011359
INCLINATION    = 97.2740
RA_OF_ASC_NODE = 357.6896
ARG_OF_PERICENTER = 88.2223
MEAN_ANOMALY   = 330.3326

EPHEMERIS_TYPE = 0
CLASSIFICATION_TYPE = U
NORAD_CAT_ID   = 67882
ELEMENT_SET_NO = 999
REV_AT_EPOCH   = 325
BSTAR          = -.30460266E-2
MEAN_MOTION_DOT = -.1156871E-1
MEAN_MOTION_DDOT = .40591471E-3

CCSDS_OMM_VERS = 2.0
CREATION_DATE  = 
ORIGINATOR     = 

OBJECT_NAME    = STARLINK-36856
OBJECT_ID      = 2026-035E
CENTER_NAME    = EARTH
REF_FRAME      = TEME
TIME_SYSTEM    = UTC
MEAN_ELEMENT_THEORY = SGP/SGP4

EPOCH          = 2026-03-06T14:00:01.000224
MEAN_MOTION    = 15.94757704
ECCENTRICITY   = .00011709
INCLINATION    = 97.2746
RA_OF_ASC_NODE = 357.6882
ARG_OF_PERICENTER = 94.3315
MEAN_ANOMALY   = 320.0201

EPHEMERIS_TYPE = 0
CLASSIFICATION_TYPE = U
NORAD_CAT_ID   = 67883
ELEMENT_SET_NO = 999
REV_AT_EPOCH   = 325
BSTAR          = -.30041687E-2
MEAN_MOTION_DOT = -.1137729E-1
MEAN_MOTION_DDOT = .39333134E-3

CCSDS_OMM_VERS = 2.0
CREATION_DATE  = 
ORIGINATOR     = 

OBJECT_NAME    = STARLINK-36842
OBJECT_ID      = 2026-035F
CENTER_NAME    = EARTH
REF_FRAME      = TEME
TIME_SYSTEM    = UTC
MEAN_ELEMENT_THEORY = SGP/SGP4

EPOCH          = 2026-03-06T14:00:01.000224
MEAN_MOTION    = 15.94872740
ECCENTRICITY   = .00011933
INCLINATION    = 97.2741
RA_OF_ASC_NODE = 357.6914
ARG_OF_PERICENTER = 83.9457
MEAN_ANOMALY   = 338.5621

EPHEMERIS_TYPE = 0
CLASSIFICATION_TYPE = U
NORAD_CAT_ID   = 67884
ELEMENT_SET_NO = 999
REV_AT_EPOCH   = 325
BSTAR          = -.30577932E-2
MEAN_MOTION_DOT = -.116489E-1
MEAN_MOTION_DDOT = .4113915E-3

CCSDS_OMM_VERS = 2.0
CREATION_DATE  = 
ORIGINATOR     = 

OBJECT_NAME    = STARLINK-36826
OBJECT_ID      = 2026-035G
CENTER_NAME    = EARTH
REF_FRAME      = TEME
TIME_SYSTEM    = UTC
MEAN_ELEMENT_THEORY = SGP/SGP4

EPOCH          = 2026-03-06T14:00:01.000224
MEAN_MOTION    = 15.94936719
ECCENTRICITY   = .0001199
INCLINATION    = 97.2739
RA_OF_ASC_NODE = 357.6927
ARG_OF_PERICENTER = 94.8203
MEAN_ANOMALY   = 330.9404

EPHEMERIS_TYPE = 0
CLASSIFICATION_TYPE = U
NORAD_CAT_ID   = 67885
ELEMENT_SET_NO = 999
REV_AT_EPOCH   = 325
BSTAR          = -.30452473E-2
MEAN_MOTION_DOT = -.1164067E-1
MEAN_MOTION_DDOT = .41112474E-3

